OBJECT_NAME,OBJECT_ID,EPOCH,MEAN_MOTION,ECCENTRICITY,INCLINATION,RA_OF_ASC_NODE,ARG_OF_PERICENTER,MEAN_ANOMALY,EPHEMERIS_TYPE,CLASSIFICATION_TYPE,NORAD_CAT_ID,ELEMENT_SET_NO,REV_AT_EPOCH,BSTAR,MEAN_MOTION_DOT,MEAN_MOTION_DDOT
GLOBALSTAR M069,2007-020C,2026-07-17T08:35:55.847328,12.23472271,.00015908,52.0008,166.7293,215.0313,299.4180,0,U,31573,999,88249,-.73017951E-4,-.1E-5,0
GLOBALSTAR M072,2007-020D,2026-07-17T11:43:33.905568,11.91658841,.00016492,51.9950,19.5748,39.9688,335.3044,0,U,31574,999,87859,.68193632E-4,-.79E-6,0
GLOBALSTAR M066,2007-048C,2026-07-17T14:38:51.019872,12.30389736,.00055717,51.9609,330.5775,106.6434,266.9058,0,U,32265,999,86397,.44418032E-3,-.42E-6,0
GLOBALSTAR M079,2010-054A,2026-07-17T10:53:28.694976,12.62266433,.0001128,52.0056,16.5339,81.5515,294.3469,0,U,37188,999,72637,-.18357462E-4,-.107E-5,0
GLOBALSTAR M074,2010-054B,2026-07-17T11:32:03.172992,12.62262048,.0000866,52.0034,15.7132,96.0712,281.5562,0,U,37189,999,72698,-.20537709E-4,-.107E-5,0
GLOBALSTAR M076,2010-054C,2026-07-17T12:15:13.552128,12.62262513,.00010983,52.0049,15.8277,96.1275,297.7140,0,U,37190,999,72670,.77596681E-4,-.9E-6,0
GLOBALSTAR M077,2010-054D,2026-07-17T04:44:48.016608,11.67547328,.00022269,51.9959,103.1240,228.9838,299.4155,0,U,37191,999,72464,-.4661651E-3,-.103E-5,0
GLOBALSTAR M075,2010-054E,2026-07-17T14:25:43.036320,12.62267880,.00007759,51.9955,57.5888,68.0712,318.3249,0,U,37192,999,72578,.5957932E-4,-.93E-6,0
GLOBALSTAR M073,2010-054F,2026-07-17T08:44:04.255296,12.62266920,.00010351,52.0081,332.4355,99.3184,286.7457,0,U,37193,999,72774,.32338732E-4,-.98E-6,0
GLOBALSTAR M083,2011-033A,2026-07-17T15:28:54.454944,12.62264285,.00007287,51.9862,279.7682,108.5996,56.8778,0,U,37739,999,69679,.15773429E-3,-.76E-6,0
GLOBALSTAR M088,2011-033B,2026-07-17T11:04:25.575168,12.62269499,.00000814,52.0189,186.8263,56.3556,112.8314,0,U,37740,999,69231,-.68146634E-4,-.116E-5,0
GLOBALSTAR M091,2011-033C,2026-07-17T15:12:18.808992,12.62264233,.00004852,51.9983,149.2226,28.4884,143.8975,0,U,37741,999,69312,-.20603028E-4,-.107E-5,0
GLOBALSTAR M085,2011-033D,2026-07-17T15:55:13.325088,12.62264389,.00008293,52.0126,100.4510,44.9845,322.8805,0,U,37742,999,69364,.12004529E-3,-.82E-6,0
GLOBALSTAR M081,2011-033E,2026-07-17T06:02:20.762016,12.62265286,.00007138,51.9956,104.1057,57.4683,118.4316,0,U,37743,999,69373,.63087191E-4,-.92E-6,0
GLOBALSTAR M089,2011-033F,2026-07-17T13:46:00.505344,12.62267596,.00007067,51.9938,57.2784,90.8844,290.0126,0,U,37744,999,69462,.53481777E-4,-.94E-6,0
GLOBALSTAR M084,2011-080A,2026-07-17T06:27:44.831232,12.62263578,.00007737,52.0018,285.7040,133.3605,243.6392,0,U,38040,999,67256,.13373362E-3,-.8E-6,0
GLOBALSTAR M080,2011-080B,2026-07-17T15:58:08.046624,12.62257571,.00002916,52.0067,286.2274,76.8437,70.7321,0,U,38041,999,67273,.15246192E-3,-.76E-6,0
GLOBALSTAR M082,2011-080C,2026-07-17T12:32:15.510336,12.62264325,.00001941,52.0060,242.1663,76.2364,71.3480,0,U,38042,999,67342,.80848488E-4,-.89E-6,0
GLOBALSTAR M092,2011-080D,2026-07-17T14:59:51.529344,12.62267839,.00007566,52.0105,332.2514,107.2756,265.7007,0,U,38043,999,67189,.9134678E-4,-.87E-6,0
GLOBALSTAR M090,2011-080E,2026-07-17T03:04:27.518592,12.62269629,.00004137,52.0103,237.3317,89.1139,304.6303,0,U,38044,999,67349,.13632176E-3,-.79E-6,0
GLOBALSTAR M086,2011-080F,2026-07-17T09:10:16.545216,12.62287861,.00014778,51.9874,236.4377,115.0182,257.5463,0,U,38045,999,67347,.37972723E-4,-.97E-6,0
GLOBALSTAR M097,2013-005A,2026-07-17T13:40:09.888960,12.62271307,.00004955,52.0028,150.8481,42.4807,317.6098,0,U,39072,999,62074,-.76835926E-4,-.118E-5,0
GLOBALSTAR M093,2013-005B,2026-07-17T13:01:38.160192,12.62266345,.00007133,52.0094,144.2883,48.0633,312.0294,0,U,39073,999,62069,.11947E-6,-.104E-5,0
GLOBALSTAR M094,2013-005C,2026-07-17T14:55:27.357024,12.62264193,.00010189,51.9969,58.1349,66.2767,293.8207,0,U,39074,999,62231,.6782705E-4,-.92E-6,0
GLOBALSTAR M096,2013-005D,2026-07-17T03:50:46.887360,12.62265725,.0000785,52.0072,108.3649,46.0016,314.0916,0,U,39075,999,62117,.91512848E-4,-.87E-6,0
GLOBALSTAR M078,2013-005E,2026-07-17T08:54:10.215648,12.62260137,.00008928,51.9845,191.6924,344.7937,15.2903,0,U,39076,999,61982,-.10030745E-3,-.122E-5,0
GLOBALSTAR M095,2013-005F,2026-07-17T00:02:27.361248,12.62264118,.0000502,52.0053,190.4627,15.9814,344.1068,0,U,39077,999,61963,-.11568438E-3,-.124E-5,0
GLOBALSTAR M087,2022-064A,2026-07-17T09:51:27.014976,12.62269420,.00009056,52.0016,330.4391,87.9852,272.1119,0,U,52888,999,19495,.88417453E-4,-.88E-6,0
